[{"OBJECT_NAME":"TRANSPORTER-13 OBJECT BC","OBJECT_ID":"2025-052BC","EPOCH":"2026-03-09T15:51:01.832832","MEAN_MOTION":14.94345554,"ECCENTRICITY":0.00011495,"INCLINATION":97.6967,"RA_OF_ASC_NODE":322.0668,"ARG_OF_PERICENTER":20.7823,"MEAN_ANOMALY":339.3444,"EPHEMERIS_TYPE":0,"CLASSIFICATION_TYPE":"U","NORAD_CAT_ID":63260,"ELEMENT_SET_NO":999,"REV_AT_EPOCH":5376,"BSTAR":0.00025427428,"MEAN_MOTION_DOT":2.678e-5,"MEAN_MOTION_DDOT":0},{"OBJECT_NAME":"PSLV DEB","OBJECT_ID":"2001-049CM","EPOCH":"2026-03-09T17:27:22.548384","MEAN_MOTION":14.90404456,"ECCENTRICITY":0.00458218,"INCLINATION":98.0898,"RA_OF_ASC_NODE":119.3906,"ARG_OF_PERICENTER":199.2732,"MEAN_ANOMALY":281.2941,"EPHEMERIS_TYPE":0,"CLASSIFICATION_TYPE":"U","NORAD_CAT_ID":27141,"ELEMENT_SET_NO":999,"REV_AT_EPOCH":30717,"BSTAR":0.00021410628,"MEAN_MOTION_DOT":2.065e-5,"MEAN_MOTION_DDOT":0}]
